NORAD_CAT_ID,OBJECT_NAME,OBJECT_TYPE,EPOCH,MEAN_MOTION,ECCENTRICITY,INCLINATION,RA_OF_ASC_NODE,ARG_OF_PERICENTER,MEAN_ANOMALY,BSTAR,MEAN_MOTION_DOT,MEAN_MOTION_DDOT,TLE_LINE0,TLE_LINE1,TLE_LINE2,SEMIMAJOR_AXIS,PERIOD,APOGEE,PERIGEE,DECAYED
51472.0,STARLINK-3415,PAYLOAD,2024-07-09 12:30:47,15.08837547,0.0001227,53.216,129.2287,83.4288,276.6844,9.7513e-06,-1.33e-06,0.0,0 STARLINK-3415,1 51472U 22010S   24191.52137913 -.00000133  00000-0  97513-5 0  9990,2 51472  53.2160 129.2287 0001227  83.4288 276.6844 15.08837547135019,6917.888,95.438,540.602,538.904,0.0
51472.0,STARLINK-3415,PAYLOAD,2024-07-09 20:27:43,15.08837457,0.0001317,53.2168,127.7435,91.1525,268.9618,-7.1825e-05,-1.431e-05,0.0,0 STARLINK-3415,1 51472U 22010S   24191.85258367 -.00001431  00000-0 -71825-4 0  9993,2 51472  53.2168 127.7435 0001317  91.1525 268.9618 15.08837457135063,6917.888,95.438,540.664,538.842,0.0
51472.0,STARLINK-3415,PAYLOAD,2024-07-10 02:49:15,15.08841851,0.000135,53.2173,126.555,93.3335,266.7812,-2.7038e-05,-7.18e-06,0.0,0 STARLINK-3415,1 51472U 22010S   24192.11753961 -.00000718  00000-0 -27038-4 0  9997,2 51472  53.2173 126.5550 0001350  93.3335 266.7812 15.08841851135609,6917.875,95.437,540.674,538.806,0.0
51472.0,STARLINK-3415,PAYLOAD,2024-07-10 12:21:34,15.08843265,0.0001358,53.2174,124.7707,92.8363,267.2784,-1.7273e-05,-5.63e-06,0.0,0 STARLINK-3415,1 51472U 22010S   24192.51497826 -.00000563  00000-0 -17273-4 0  9994,2 51472  53.2174 124.7707 0001358  92.8363 267.2784 15.08843265135163,6917.87,95.437,540.675,538.796,0.0
51472.0,STARLINK-3415,PAYLOAD,2024-07-11 04:15:25,15.08839902,0.0001516,53.2187,121.7975,93.4206,266.6959,7.9706e-05,9.81e-06,0.0,0 STARLINK-3415,1 51472U 22010S   24193.17738057  .00000981  00000-0  79706-4 0  9992,2 51472  53.2187 121.7975 0001516  93.4206 266.6959 15.08839902135766,6917.881,95.438,540.794,538.697,0.0
51472.0,STARLINK-3415,PAYLOAD,2024-07-12 12:03:08,15.08843262,0.0001348,53.2172,115.8458,82.3078,277.8068,6.2248e-05,7.03e-06,0.0,0 STARLINK-3415,1 51472U 22010S   24194.50217985  .00000703  00000-0  62248-4 0  9997,2 51472  53.2172 115.8458 0001348  82.3078 277.8068 15.08843262135968,6917.87,95.437,540.668,538.803,0.0
51472.0,STARLINK-3415,PAYLOAD,2024-07-13 11:53:55,15.08839044,0.0001633,53.2188,111.3843,83.7395,276.3783,2.0403e-05,3.7e-07,0.0,0 STARLINK-3415,1 51472U 22010S   24195.49578533  .00000037  00000-0  20403-4 0  9992,2 51472  53.2188 111.3843 0001633  83.7395 276.3783 15.08839044136117,6917.883,95.438,540.878,538.619,0.0
51472.0,STARLINK-3415,PAYLOAD,2024-07-13 18:15:28,15.08840186,0.0001472,53.218,110.1965,88.936,271.18,-6.1824e-05,-1.272e-05,0.0,0 STARLINK-3415,1 51472U 22010S   24195.76074774 -.00001272  00000-0 -61824-4 0  9996,2 51472  53.2180 110.1965 0001472  88.9360 271.1800 15.08840186135651,6917.88,95.438,540.763,538.727,0.0
51472.0,STARLINK-3415,PAYLOAD,2024-07-14 11:44:42,15.08844383,0.0001468,53.2164,106.9258,89.549,270.567,4.9959e-05,5.07e-06,0.0,0 STARLINK-3415,1 51472U 22010S   24196.48938018  .00000507  00000-0  49959-4 0  9999,2 51472  53.2164 106.9258 0001468  89.5490 270.5670 15.08844383135760,6917.867,95.437,540.748,538.716,0.0
51472.0,STARLINK-3415,PAYLOAD,2024-07-14 21:17:01,15.08843943,0.000155,53.2153,105.1418,88.5677,271.5493,0.00011451,1.535e-05,0.0,0 STARLINK-3415,1 51472U 22010S   24196.88681858  .00001535  00000-0  11451-3 0  9997,2 51472  53.2153 105.1418 0001550  88.5677 271.5493 15.08843943136323,6917.868,95.437,540.806,538.661,0.0
51472.0,STARLINK-3415,PAYLOAD,2024-07-14 22:52:24,15.08843893,0.0001471,53.2166,104.844,90.3942,269.7219,0.00012023,1.626e-05,0.0,0 STARLINK-3415,1 51472U 22010S   24196.95305831  .00001626  00000-0  12023-3 0  9996,2 51472  53.2166 104.8440 0001471  90.3942 269.7219 15.08843893135830,6917.868,95.437,540.751,538.716,0.0
51472.0,STARLINK-3415,PAYLOAD,2024-07-15 03:38:32,15.08858196,0.0001606,53.2178,103.9504,100.5342,259.5831,0.00011067,1.475e-05,0.0,0 STARLINK-3415,1 51472U 22010S   24197.15176876  .00001475  00000-0  11067-3 0  9993,2 51472  53.2178 103.9504 0001606 100.5342 259.5831 15.08858196136360,6917.825,95.436,540.801,538.579,0.0
51472.0,STARLINK-3415,PAYLOAD,2024-07-15 21:07:49,15.08831231,0.0001464,53.2166,100.6808,100.1993,259.9164,2.0848e-05,4.4e-07,0.0,0 STARLINK-3415,1 51472U 22010S   24197.88042972  .00000044  00000-0  20848-4 0  9991,2 51472  53.2166 100.6808 0001464 100.1993 259.9164 15.08831231136474,6917.907,95.438,540.785,538.759,0.0
51472.0,STARLINK-3415,PAYLOAD,2024-07-15 22:43:12,15.08831936,0.0001411,53.2168,100.3834,94.5709,265.5444,2.9086e-05,1.75e-06,0.0,0 STARLINK-3415,1 51472U 22010S   24197.94666984  .00000175  00000-0  29086-4 0  9991,2 51472  53.2168 100.3834 0001411  94.5709 265.5444 15.08831936135986,6917.905,95.438,540.746,538.794,0.0
51472.0,STARLINK-3415,PAYLOAD,2024-07-16 20:58:35,15.0884869,0.0001666,53.2187,96.2198,116.4801,243.6362,7.2018e-05,8.59e-06,0.0,0 STARLINK-3415,1 51472U 22010S   24198.87401689  .00000859  00000-0  72018-4 0  9995,2 51472  53.2187  96.2198 0001666 116.4801 243.6362 15.08848690136625,6917.854,95.437,540.871,538.566,0.0
51472.0,STARLINK-3415,PAYLOAD,2024-07-16 22:33:58,15.08849927,0.0001404,53.217,95.9218,105.3664,254.7484,0.00013582,1.875e-05,0.0,0 STARLINK-3415,1 51472U 22010S   24198.94025713  .00001875  00000-0  13582-3 0  9992,2 51472  53.2170  95.9218 0001404 105.3664 254.7484 15.08849927136138,6917.85,95.437,540.686,538.744,0.0
51472.0,STARLINK-3415,PAYLOAD,2024-07-17 09:41:40,15.08849826,0.0001578,53.2167,93.838,59.9629,300.1519,0.00022769,3.338e-05,0.0,0 STARLINK-3415,1 51472U 22010S   24199.40393581  .00003338  00000-0  22769-3 0  9998,2 51472  53.2167  93.8380 0001578  59.9629 300.1519 15.08849826136209,6917.85,95.437,540.807,538.624,0.0
51472.0,STARLINK-3415,PAYLOAD,2024-07-17 20:49:22,15.0883076,0.0001189,53.2176,91.7679,106.9396,253.1726,-0.00013542,-2.442e-05,0.0,0 STARLINK-3415,1 51472U 22010S   24199.86762598 -.00002442  00000-0 -13542-3 0  9992,2 51472  53.2176  91.7679 0001189 106.9396 253.1726 15.08830760136775,6917.909,95.438,540.596,538.951,0.0
51472.0,STARLINK-3415,PAYLOAD,2024-07-17 22:24:46,15.08831517,0.0001204,53.2176,91.4705,107.6379,252.4745,-0.0001113,-2.058e-05,0.0,0 STARLINK-3415,1 51472U 22010S   24199.93386607 -.00002058  00000-0 -11130-3 0  9997,2 51472  53.2176  91.4705 0001204 107.6379 252.4745 15.08831517136289,6917.906,95.438,540.604,538.938,0.0
51472.0,STARLINK-3415,PAYLOAD,2024-07-18 09:32:28,15.08829745,0.0001278,53.2182,89.388,109.5103,250.6027,-9.6377e-05,-1.821e-05,0.0,0 STARLINK-3415,1 51472U 22010S   24200.39754922 -.00001821  00000-0 -96377-4 0  9993,2 51472  53.2182  89.3880 0001278 109.5103 250.6027 15.08829745136354,6917.912,95.438,540.661,538.893,0.0
51472.0,STARLINK-3415,PAYLOAD,2024-07-18 22:15:33,15.08834041,0.0001043,53.2166,87.0067,96.6732,263.4379,-4.6874e-05,-1.034e-05,0.0,0 STARLINK-3415,1 51472U 22010S   24200.92747111 -.00001034  00000-0 -46874-4 0  9997,2 51472  53.2166  87.0067 0001043  96.6732 263.4379 15.08834041136438,6917.899,95.438,540.485,539.042,0.0
51472.0,STARLINK-3415,PAYLOAD,2024-07-19 03:01:42,15.08840561,0.0001198,53.2168,86.1066,58.8248,301.2861,0.00018063,2.588e-05,0.0,0 STARLINK-3415,1 51472U 22010S   24201.12618823  .00002588  00000-0  18063-3 0  9998,2 51472  53.2168  86.1066 0001198  58.8248 301.2861 15.08840561136961,6917.879,95.438,540.572,538.915,0.0
51472.0,STARLINK-3415,PAYLOAD,2024-07-19 09:23:15,15.08835646,9.08e-05,53.2161,84.9178,89.7983,270.3113,0.00012411,1.688e-05,0.0,0 STARLINK-3415,1 51472U 22010S   24201.39115148  .00001688  00000-0  12411-3 0  9990,2 51472  53.2161  84.9178 0000908  89.7983 270.3113 15.08835646136505,6917.894,95.438,540.387,539.131,0.0
51472.0,STARLINK-3415,PAYLOAD,2024-07-19 20:30:57,15.0883322,9.56e-05,53.216,82.836,73.0686,287.0411,0.00025066,3.703e-05,0.0,0 STARLINK-3415,1 51472U 22010S   24201.85483519  .00003703  00000-0  25066-3 0  9991,2 51472  53.2160  82.8360 0000956  73.0686 287.0411 15.08833220137078,6917.901,95.438,540.427,539.105,0.0
51472.0,STARLINK-3415,PAYLOAD,2024-07-19 22:06:20,15.08838377,9.83e-05,53.2161,82.5387,73.3874,286.7226,0.00017468,2.493e-05,0.0,0 STARLINK-3415,1 51472U 22010S   24201.92107292  .00002493  00000-0  17468-3 0  9992,2 51472  53.2161  82.5387 0000983  73.3874 286.7226 15.08838377136580,6917.885,95.438,540.43,539.07,0.0
51472.0,STARLINK-3415,PAYLOAD,2024-07-20 01:17:06,15.08849149,0.0001098,53.2165,81.9511,88.8205,271.2913,0.00036703,5.56e-05,0.0,0 STARLINK-3415,1 51472U 22010S   24202.05354911  .00005560  00000-0  36703-3 0  9990,2 51472  53.2165  81.9511 0001098  88.8205 271.2913 15.08849149137103,6917.852,95.437,540.477,538.958,0.0
51472.0,STARLINK-3415,PAYLOAD,2024-07-20 09:14:02,15.08836841,0.000121,53.2168,80.4632,76.9256,283.1871,0.00015671,2.207e-05,0.0,0 STARLINK-3415,1 51472U 22010S   24202.38475635  .00002207  00000-0  15671-3 0  9999,2 51472  53.2168  80.4632 0001210  76.9256 283.1871 15.08836841137159,6917.89,95.438,540.592,538.918,0.0
51472.0,STARLINK-3415,PAYLOAD,2024-07-20 21:57:08,15.08834248,8.49e-05,53.2173,78.0824,80.2615,279.8473,7.6927e-05,9.37e-06,0.0,0 STARLINK-3415,1 51472U 22010S   24202.91467912  .00000937  00000-0  76927-4 0  9997,2 51472  53.2173  78.0824 0000849  80.2615 279.8473 15.08834248136737,6917.898,95.438,540.35,539.176,0.0
51472.0,STARLINK-3415,PAYLOAD,2024-07-21 01:07:53,15.08846492,0.0001039,53.216,77.4853,86.5946,273.5165,0.00011841,1.598e-05,0.0,0 STARLINK-3415,1 51472U 22010S   24203.04715228  .00001598  00000-0  11841-3 0  9995,2 51472  53.2160  77.4853 0001039  86.5946 273.5165 15.08846492136751,6917.861,95.437,540.444,539.007,0.0
51472.0,STARLINK-3415,PAYLOAD,2024-07-21 20:12:31,15.08839305,0.0001044,53.2149,73.9157,96.7788,263.3323,7.4007e-05,8.9e-06,0.0,0 STARLINK-3415,1 51472U 22010S   24203.84203594  .00000890  00000-0  74007-4 0  9999,2 51472  53.2149  73.9157 0001044  96.7788 263.3323 15.08839305137376,6917.883,95.438,540.47,539.025,0.0
